{"type": "FeatureCollection", "features": [ {"type": "Feature", "properties": {"norad_id": 37340, "name": "COSMOS 2251 DEB", "group": "cosmos-2251-debris", "lat": 59.46029925181922, "lon": -69.4340086719305, "alt_km": 757.9202230650162, "timestamp": "2025-12-21T05:44:51.985029+00:00", "meta": {"OBJECT_NAME": "COSMOS 2251 DEB", "OBJECT_ID": "1993-036BLG", "EPOCH": "2025-12-19T03:19:36.196032", "MEAN_MOTION": 14.36930541, "ECCENTRICITY": 0.00180628, "INCLINATION": 74.0254, "RA_OF_ASC_NODE": 265.3825, "ARG_OF_PERICENTER": 358.9051, "MEAN_ANOMALY": 1.206, "EPHEMERIS_TYPE": 0, "CLASSIFICATION_TYPE": "U", "NORAD_CAT_ID": 37340, "ELEMENT_SET_NO": 999, "REV_AT_EPOCH": 84159, "BSTAR": 0.00014760605, "MEAN_MOTION_DOT": 4.11e-06, "MEAN_MOTION_DDOT": 0}, "tle": {"line1": "1 37340U 93036BLG 25353.13861338  .00000411  00000+0  14761-3 0  9996", "line2": "2 37340  74.0254 265.3825 0018062 358.9051   1.2060 14.36930541841592"}}, "geometry": {"type": "Point", "coordinates": [-69.4340086719305, 59.46029925181922]}}, {"type": "Feature", "properties": {"norad_id": 37483, "name": "COSMOS 2251 DEB", "group": "cosmos-2251-debris", "lat": 18.90679536845475, "lon": 133.1280437514523, "alt_km": 701.5063151416443, "timestamp": "2025-12-21T05:44:51.985039+00:00", "meta": {"OBJECT_NAME": "COSMOS 2251 DEB", "OBJECT_ID": "1993-036BLL", "EPOCH": "2025-12-19T15:24:15.613632", "MEAN_MOTION": 14.43565885, "ECCENTRICITY": 0.0093433, "INCLINATION": 73.9738, "RA_OF_ASC_NODE": 130.458, "ARG_OF_PERICENTER": 335.3971, "MEAN_ANOMALY": 24.2741, "EPHEMERIS_TYPE": 0, "CLASSIFICATION_TYPE": "U", "NORAD_CAT_ID": 37483, "ELEMENT_SET_NO": 999, "REV_AT_EPOCH": 65379, "BSTAR": 0.00014162, "MEAN_MOTION_DOT": 4.76e-06, "MEAN_MOTION_DDOT": 0}, "tle": {"line1": "1 37483U 93036BLL 25353.64184738  .00000476  00000+0  14162-3 0  9998", "line2": "2 37483  73.9738 130.4580 0093433 335.3971  24.2741 14.43565885653797"}}, "geometry": {"type": "Point", "coordinates": [133.1280437514523, 18.90679536845475]}}, {"type": "Feature", "properties": {"norad_id": 37484, "name": "COSMOS 2251 DEB", "group": "cosmos-2251-debris", "lat": -32.68825211551782, "lon": 23.221139920307518, "alt_km": 730.7185035649709, "timestamp": "2025-12-21T05:44:51.985049+00:00", "meta": {"OBJECT_NAME": "COSMOS 2251 DEB", "OBJECT_ID": "1993-036BLM", "EPOCH": "2025-12-18T07:38:27.570624", "MEAN_MOTION": 14.41807924, "ECCENTRICITY": 0.00394245, "INCLINATION": 73.8227, "RA_OF_ASC_NODE": 197.9673, "ARG_OF_PERICENTER": 231.9462, "MEAN_ANOMALY": 306.1628, "EPHEMERIS_TYPE": 0, "CLASSIFICATION_TYPE": "U", "NORAD_CAT_ID": 37484, "ELEMENT_SET_NO": 999, "REV_AT_EPOCH": 65459, "BSTAR": 0.0005692289, "MEAN_MOTION_DOT": 1.85e-05, "MEAN_MOTION_DDOT": 0}, "tle": {"line1": "1 37484U 93036BLM 25352.31837466  .00001850  00000+0  56923-3 0  9993", "line2": "2 37484  73.8227 197.9673 0039424 231.9462 306.1628 14.41807924654593"}}, "geometry": {"type": "Point", "coordinates": [23.221139920307518, -32.68825211551782]}}, {"type": "Feature", "properties": {"norad_id": 37486, "name": "COSMOS 2251 DEB", "group": "cosmos-2251-debris", "lat": -34.6289643417755, "lon": 87.56828993927732, "alt_km": 687.5289294267404, "timestamp": "2025-12-21T05:44:51.985059+00:00", "meta": {"OBJECT_NAME": "COSMOS 2251 DEB", "OBJECT_ID": "1993-036BLP", "EPOCH": "2025-12-17T02:32:52.709568", "MEAN_MOTION": 14.133616, "ECCENTRICITY": 0.02300438, "INCLINATION": 73.6918, "RA_OF_ASC_NODE": 106.7033, "ARG_OF_PERICENTER": 334.068, "MEAN_ANOMALY": 206.8915, "EPHEMERIS_TYPE": 0, "CLASSIFICATION_TYPE": "U", "NORAD_CAT_ID": 37486, "ELEMENT_SET_NO": 999, "REV_AT_EPOCH": 63431, "BSTAR": 0.0015394853, "MEAN_MOTION_DOT": 3.693e-05, "MEAN_MOTION_DDOT": 0}, "tle": {"line1": "1 37486U 93036BLP 25351.10616562  .00003693  00000+0  15395-2 0  9997", "line2": "2 37486  73.6918 106.7033 0230043 334.0680 206.8915 14.13361600634313"}}, "geometry": {"type": "Point", "coordinates": [87.56828993927732, -34.6289643417755]}}, {"type": "Feature", "properties": {"norad_id": 37487, "name": "COSMOS 2251 DEB", "group": "cosmos-2251-debris", "lat": -25.707411080723645, "lon": 167.19131606440396, "alt_km": 615.5598538697795, "timestamp": "2025-12-21T05:44:51.985069+00:00", "meta": {"OBJECT_NAME": "COSMOS 2251 DEB", "OBJECT_ID": "1993-036BLQ", "EPOCH": "2025-12-12T06:17:24.389376", "MEAN_MOTION": 14.80982589, "ECCENTRICITY": 0.00255931, "INCLINATION": 73.9026, "RA_OF_ASC_NODE": 193.0379, "ARG_OF_PERICENTER": 31.2136, "MEAN_ANOMALY": 329.0553, "EPHEMERIS_TYPE": 0, "CLASSIFICATION_TYPE": "U", "NORAD_CAT_ID": 37487, "ELEMENT_SET_NO": 999, "REV_AT_EPOCH": 81238, "BSTAR": 0.0042593386, "MEAN_MOTION_DOT": 0.00033302, "MEAN_MOTION_DDOT": 0}, "tle": {"line1": "1 37487U 93036BLQ 25346.26208784  .00033302  00000+0  42593-2 0  9992", "line2": "2 37487  73.9026 193.0379 0025593  31.2136 329.0553 14.80982589812383"}}, "geometry": {"type": "Point", "coordinates": [167.19131606440396, -25.707411080723645]}}, {"type": "Feature", "properties": {"norad_id": 37491, "name": "COSMOS 2251 DEB", "group": "cosmos-2251-debris", "lat": 73.81237226986421, "lon": -4.145655923611305, "alt_km": 1190.906115953101, "timestamp": "2025-12-21T05:44:51.985079+00:00", "meta": {"OBJECT_NAME": "COSMOS 2251 DEB", "OBJECT_ID": "1993-036BLU", "EPOCH": "2025-12-18T10:56:34.756512", "MEAN_MOTION": 13.75306466, "ECCENTRICITY": 0.03168182, "INCLINATION": 73.9061, "RA_OF_ASC_NODE": 264.5073, "ARG_OF_PERICENTER": 256.5569, "MEAN_ANOMALY": 100.0063, "EPHEMERIS_TYPE": 0, "CLASSIFICATION_TYPE": "U", "NORAD_CAT_ID": 37491, "ELEMENT_SET_NO": 999, "REV_AT_EPOCH": 55825, "BSTAR": 0.00075469167, "MEAN_MOTION_DOT": 1.019e-05, "MEAN_MOTION_DDOT": 0}, "tle": {"line1": "1 37491U 93036BLU 25352.45595783  .00001019  00000+0  75469-3 0  9992", "line2": "2 37491  73.9061 264.5073 0316818 256.5569 100.0063 13.75306466558250"}}, "geometry": {"type": "Point", "coordinates": [-4.145655923611305, 73.81237226986421]}}, {"type": "Feature", "properties": {"norad_id": 37498, "name": "COSMOS 2251 DEB", "group": "cosmos-2251-debris", "lat": 47.46558214299935, "lon": -174.01600544218496, "alt_km": 714.0294865845653, "timestamp": "2025-12-21T05:44:51.985089+00:00", "meta": {"OBJECT_NAME": "COSMOS 2251 DEB", "OBJECT_ID": "1993-036BMB", "EPOCH": "2025-12-17T05:47:45.632832", "MEAN_MOTION": 14.54797097, "ECCENTRICITY": 0.00121661, "INCLINATION": 74.035, "RA_OF_ASC_NODE": 175.365, "ARG_OF_PERICENTER": 238.5243, "MEAN_ANOMALY": 121.4732, "EPHEMERIS_TYPE": 0, "CLASSIFICATION_TYPE": "U", "NORAD_CAT_ID": 37498, "ELEMENT_SET_NO": 999, "REV_AT_EPOCH": 65420, "BSTAR": 0.00050498457, "MEAN_MOTION_DOT": 2.139e-05, "MEAN_MOTION_DDOT": 0}, "tle": {"line1": "1 37498U 93036BMB 25351.24150038  .00002139  00000+0  50498-3 0  9994", "line2": "2 37498  74.0350 175.3650 0012166 238.5243 121.4732 14.54797097654202"}}, "geometry": {"type": "Point", "coordinates": [-174.01600544218496, 47.46558214299935]}}, {"type": "Feature", "properties": {"norad_id": 37499, "name": "COSMOS 2251 DEB", "group": "cosmos-2251-debris", "lat": -2.7475717569344456, "lon": -54.157767530377924, "alt_km": 762.2251949274996, "timestamp": "2025-12-21T05:44:51.985099+00:00", "meta": {"OBJECT_NAME": "COSMOS 2251 DEB", "OBJECT_ID": "1993-036BMC", "EPOCH": "2025-12-20T14:41:45.178080", "MEAN_MOTION": 14.34349303, "ECCENTRICITY": 0.0027237, "INCLINATION": 74.0381, "RA_OF_ASC_NODE": 307.7769, "ARG_OF_PERICENTER": 21.4596, "MEAN_ANOMALY": 338.7691, "EPHEMERIS_TYPE": 0, "CLASSIFICATION_TYPE": "U", "NORAD_CAT_ID": 37499, "ELEMENT_SET_NO": 999, "REV_AT_EPOCH": 85262, "BSTAR": 0.00012215, "MEAN_MOTION_DOT": 3.19e-06, "MEAN_MOTION_DDOT": 0}, "tle": {"line1": "1 37499U 93036BMC 25354.61232845  .00000319  00000+0  12215-3 0  9999", "line2": "2 37499  74.0381 307.7769 0027237  21.4596 338.7691 14.34349303852628"}}, "geometry": {"type": "Point", "coordinates": [-54.157767530377924, -2.7475717569344456]}}, {"type": "Feature", "properties": {"norad_id": 37528, "name": "COSMOS 2251 DEB", "group": "cosmos-2251-debris", "lat": -66.12085422185764, "lon": 65.88214663981776, "alt_km": 718.4390766569413, "timestamp": "2025-12-21T05:44:51.985109+00:00", "meta": {"OBJECT_NAME": "COSMOS 2251 DEB", "OBJECT_ID": "1993-036BNH", "EPOCH": "2025-12-19T14:21:12.198240", "MEAN_MOTION": 14.50543409, "ECCENTRICITY": 0.0021102, "INCLINATION": 74.0372, "RA_OF_ASC_NODE": 109.2477, "ARG_OF_PERICENTER": 256.6306, "MEAN_ANOMALY": 103.2502, "EPHEMERIS_TYPE": 0, "CLASSIFICATION_TYPE": "U", "NORAD_CAT_ID": 37528, "ELEMENT_SET_NO": 999, "REV_AT_EPOCH": 86030, "BSTAR": 0.00032831, "MEAN_MOTION_DOT": 1.262e-05, "MEAN_MOTION_DDOT": 0}, "tle": {"line1": "1 37528U 93036BNH 25353.59805785  .00001262  00000+0  32831-3 0  9991", "line2": "2 37528  74.0372 109.2477 0021102 256.6306 103.2502 14.50543409860309"}}, "geometry": {"type": "Point", "coordinates": [65.88214663981776, -66.12085422185764]}}, {"type": "Feature", "properties": {"norad_id": 37530, "name": "COSMOS 2251 DEB", "group": "cosmos-2251-debris", "lat": 62.24754625375643, "lon": -8.967007161667615, "alt_km": 757.9822880503853, "timestamp": "2025-12-21T05:44:51.985119+00:00", "meta": {"OBJECT_NAME": "COSMOS 2251 DEB", "OBJECT_ID": "1993-036BNK", "EPOCH": "2025-12-20T04:25:20.724960", "MEAN_MOTION": 14.34512323, "ECCENTRICITY": 0.0026208, "INCLINATION": 74.0363, "RA_OF_ASC_NODE": 320.008, "ARG_OF_PERICENTER": 20.0363, "MEAN_ANOMALY": 359.5359, "EPHEMERIS_TYPE": 0, "CLASSIFICATION_TYPE": "U", "NORAD_CAT_ID": 37530, "ELEMENT_SET_NO": 999, "REV_AT_EPOCH": 85339, "BSTAR": 0.00016497605, "MEAN_MOTION_DOT": 4.41e-06, "MEAN_MOTION_DDOT": 0}, "tle": {"line1": "1 37530U 93036BNK 25354.18426765  .00000441  00000+0  16498-3 0  9996", "line2": "2 37530  74.0363 320.0080 0026208  20.0363 359.5359 14.34512323853393"}}, "geometry": {"type": "Point", "coordinates": [-8.967007161667615, 62.24754625375643]}}]}